CCSDS_OMM_VERS = 2.0
CREATION_DATE  = 
ORIGINATOR     = 

OBJECT_NAME    = ELECTRON R/B
OBJECT_ID      = 2025-307B
CENTER_NAME    = EARTH
REF_FRAME      = TEME
TIME_SYSTEM    = UTC
MEAN_ELEMENT_THEORY = SGP/SGP4

EPOCH          = 2026-01-15T07:54:52.718112
MEAN_MOTION    = 15.87959470
ECCENTRICITY   = .0136084
INCLINATION    = 41.9917
RA_OF_ASC_NODE = 330.6376
ARG_OF_PERICENTER = 61.6305
MEAN_ANOMALY   = 299.8197

EPHEMERIS_TYPE = 0
CLASSIFICATION_TYPE = U
NORAD_CAT_ID   = 67229
ELEMENT_SET_NO = 999
REV_AT_EPOCH   = 393
BSTAR          = .15068E-2
MEAN_MOTION_DOT = .967413E-2
MEAN_MOTION_DDOT = .78012E-5

CCSDS_OMM_VERS = 2.0
CREATION_DATE  = 
ORIGINATOR     = 

OBJECT_NAME    = ELECTRON KICK STAGE R/B
OBJECT_ID      = 2025-307C
CENTER_NAME    = EARTH
REF_FRAME      = TEME
TIME_SYSTEM    = UTC
MEAN_ELEMENT_THEORY = SGP/SGP4

EPOCH          = 2026-01-15T12:58:27.791616
MEAN_MOTION    = 16.27861166
ECCENTRICITY   = .00418332
INCLINATION    = 41.9953
RA_OF_ASC_NODE = 326.9461
ARG_OF_PERICENTER = 101.3020
MEAN_ANOMALY   = 259.2557

EPHEMERIS_TYPE = 0
CLASSIFICATION_TYPE = U
NORAD_CAT_ID   = 67230
ELEMENT_SET_NO = 999
REV_AT_EPOCH   = 239
BSTAR          = .12194811E-2
MEAN_MOTION_DOT = .6272261E-1
MEAN_MOTION_DDOT = .8324633E-5

CCSDS_OMM_VERS = 2.0
CREATION_DATE  = 
ORIGINATOR     = 

OBJECT_NAME    = SPACEMOBILE-006
OBJECT_ID      = 2025-309A
CENTER_NAME    = EARTH
REF_FRAME      = TEME
TIME_SYSTEM    = UTC
MEAN_ELEMENT_THEORY = SGP/SGP4

EPOCH          = 2026-01-15T15:20:30.192576
MEAN_MOTION    = 15.17742258
ECCENTRICITY   = .00119963
INCLINATION    = 52.9987
RA_OF_ASC_NODE = 309.9129
ARG_OF_PERICENTER = 31.1147
MEAN_ANOMALY   = 329.0554

EPHEMERIS_TYPE = 0
CLASSIFICATION_TYPE = U
NORAD_CAT_ID   = 67232
ELEMENT_SET_NO = 999
REV_AT_EPOCH   = 342
BSTAR          = -.1203435E-5
MEAN_MOTION_DOT = -.346E-5
MEAN_MOTION_DDOT = 0

CCSDS_OMM_VERS = 2.0
CREATION_DATE  = 
ORIGINATOR     = 

OBJECT_NAME    = LVM3 R/B
OBJECT_ID      = 2025-309B
CENTER_NAME    = EARTH
REF_FRAME      = TEME
TIME_SYSTEM    = UTC
MEAN_ELEMENT_THEORY = SGP/SGP4

EPOCH          = 2026-01-15T14:42:05.400000
MEAN_MOTION    = 15.19682475
ECCENTRICITY   = .00117918
INCLINATION    = 52.9288
RA_OF_ASC_NODE = 309.5061
ARG_OF_PERICENTER = 55.7932
MEAN_ANOMALY   = 304.4177

EPHEMERIS_TYPE = 0
CLASSIFICATION_TYPE = U
NORAD_CAT_ID   = 67233
ELEMENT_SET_NO = 999
REV_AT_EPOCH   = 342
BSTAR          = .23752333E-3
MEAN_MOTION_DOT = .4818E-4
MEAN_MOTION_DDOT = 0

CCSDS_OMM_VERS = 2.0
CREATION_DATE  = 
ORIGINATOR     = 

OBJECT_NAME    = 2025-310A
OBJECT_ID      = 2025-310A
CENTER_NAME    = EARTH
REF_FRAME      = TEME
TIME_SYSTEM    = UTC
MEAN_ELEMENT_THEORY = SGP/SGP4

EPOCH          = 2026-01-14T17:20:52.977696
MEAN_MOTION    = 14.75705364
ECCENTRICITY   = .0001912
INCLINATION    = 97.9664
RA_OF_ASC_NODE = 24.2349
ARG_OF_PERICENTER = 179.1290
MEAN_ANOMALY   = 180.9923

EPHEMERIS_TYPE = 0
CLASSIFICATION_TYPE = U
NORAD_CAT_ID   = 67234
ELEMENT_SET_NO = 999
REV_AT_EPOCH   = 299
BSTAR          = .869375E-5
MEAN_MOTION_DOT = .9E-7
MEAN_MOTION_DDOT = 0

CCSDS_OMM_VERS = 2.0
CREATION_DATE  = 
ORIGINATOR     = 

OBJECT_NAME    = SL-4 R/B
OBJECT_ID      = 2025-310B
CENTER_NAME    = EARTH
REF_FRAME      = TEME
TIME_SYSTEM    = UTC
MEAN_ELEMENT_THEORY = SGP/SGP4

EPOCH          = 2026-01-15T15:31:10.691328
MEAN_MOTION    = 15.59723108
ECCENTRICITY   = .02653007
INCLINATION    = 97.9619
RA_OF_ASC_NODE = 27.5118
ARG_OF_PERICENTER = 0.3523
MEAN_ANOMALY   = 359.7870

EPHEMERIS_TYPE = 0
CLASSIFICATION_TYPE = U
NORAD_CAT_ID   = 67235
ELEMENT_SET_NO = 999
REV_AT_EPOCH   = 327
BSTAR          = .52541713E-3
MEAN_MOTION_DOT = .265867E-2
MEAN_MOTION_DDOT = .2427746E-5

CCSDS_OMM_VERS = 2.0
CREATION_DATE  = 
ORIGINATOR     = 

OBJECT_NAME    = HULIANWANG DIGUI-128
OBJECT_ID      = 2025-311A
CENTER_NAME    = EARTH
REF_FRAME      = TEME
TIME_SYSTEM    = UTC
MEAN_ELEMENT_THEORY = SGP/SGP4

EPOCH          = 2026-01-15T15:13:38.164800
MEAN_MOTION    = 13.90210717
ECCENTRICITY   = .00065679
INCLINATION    = 50.0101
RA_OF_ASC_NODE = 313.4332
ARG_OF_PERICENTER = 346.4900
MEAN_ANOMALY   = 13.5822

EPHEMERIS_TYPE = 0
CLASSIFICATION_TYPE = U
NORAD_CAT_ID   = 67236
ELEMENT_SET_NO = 999
REV_AT_EPOCH   = 288
BSTAR          = .81614162E-4
MEAN_MOTION_DOT = -.45E-6
MEAN_MOTION_DDOT = 0

CCSDS_OMM_VERS = 2.0
CREATION_DATE  = 
ORIGINATOR     = 

OBJECT_NAME    = HULIANWANG DIGUI-129
OBJECT_ID      = 2025-311B
CENTER_NAME    = EARTH
REF_FRAME      = TEME
TIME_SYSTEM    = UTC
MEAN_ELEMENT_THEORY = SGP/SGP4

EPOCH          = 2026-01-15T15:15:30.121920
MEAN_MOTION    = 13.90166973
ECCENTRICITY   = .00078152
INCLINATION    = 50.0090
RA_OF_ASC_NODE = 313.4372
ARG_OF_PERICENTER = 348.0369
MEAN_ANOMALY   = 12.0343

EPHEMERIS_TYPE = 0
CLASSIFICATION_TYPE = U
NORAD_CAT_ID   = 67237
ELEMENT_SET_NO = 999
REV_AT_EPOCH   = 288
BSTAR          = .76372457E-4
MEAN_MOTION_DOT = -.51E-6
MEAN_MOTION_DDOT = 0

CCSDS_OMM_VERS = 2.0
CREATION_DATE  = 
ORIGINATOR     = 

OBJECT_NAME    = HULIANWANG DIGUI-130
OBJECT_ID      = 2025-311C
CENTER_NAME    = EARTH
REF_FRAME      = TEME
TIME_SYSTEM    = UTC
MEAN_ELEMENT_THEORY = SGP/SGP4

EPOCH          = 2026-01-15T15:25:02.844192
MEAN_MOTION    = 13.90218602
ECCENTRICITY   = .00077665
INCLINATION    = 50.0071
RA_OF_ASC_NODE = 313.4663
ARG_OF_PERICENTER = 325.4977
MEAN_ANOMALY   = 34.5417

EPHEMERIS_TYPE = 0
CLASSIFICATION_TYPE = U
NORAD_CAT_ID   = 67238
ELEMENT_SET_NO = 999
REV_AT_EPOCH   = 288
BSTAR          = .84076042E-4
MEAN_MOTION_DOT = -.42E-6
MEAN_MOTION_DDOT = 0

CCSDS_OMM_VERS = 2.0
CREATION_DATE  = 
ORIGINATOR     = 

OBJECT_NAME    = HULIANWANG DIGUI-131
OBJECT_ID      = 2025-311D
CENTER_NAME    = EARTH
REF_FRAME      = TEME
TIME_SYSTEM    = UTC
MEAN_ELEMENT_THEORY = SGP/SGP4

EPOCH          = 2026-01-15T15:29:31.742592
MEAN_MOTION    = 13.90205630
ECCENTRICITY   = .00093773
INCLINATION    = 50.0066
RA_OF_ASC_NODE = 313.4811
ARG_OF_PERICENTER = 332.8334
MEAN_ANOMALY   = 27.2073

EPHEMERIS_TYPE = 0
CLASSIFICATION_TYPE = U
NORAD_CAT_ID   = 67239
ELEMENT_SET_NO = 999
REV_AT_EPOCH   = 288
BSTAR          = .80418412E-4
MEAN_MOTION_DOT = -.46E-6
MEAN_MOTION_DDOT = 0

CCSDS_OMM_VERS = 2.0
CREATION_DATE  = 
ORIGINATOR     = 

OBJECT_NAME    = HULIANWANG DIGUI-132
OBJECT_ID      = 2025-311E
CENTER_NAME    = EARTH
REF_FRAME      = TEME
TIME_SYSTEM    = UTC
MEAN_ELEMENT_THEORY = SGP/SGP4

EPOCH          = 2026-01-15T15:20:36.617280
MEAN_MOTION    = 13.90231481
ECCENTRICITY   = .00084652
INCLINATION    = 50.0078
RA_OF_ASC_NODE = 313.4522
ARG_OF_PERICENTER = 339.4838
MEAN_ANOMALY   = 20.5719

EPHEMERIS_TYPE = 0
CLASSIFICATION_TYPE = U
NORAD_CAT_ID   = 67240
ELEMENT_SET_NO = 999
REV_AT_EPOCH   = 288
BSTAR          = .74510039E-4
MEAN_MOTION_DOT = -.53E-6
MEAN_MOTION_DDOT = 0

CCSDS_OMM_VERS = 2.0
CREATION_DATE  = 
ORIGINATOR     = 

OBJECT_NAME    = HULIANWANG DIGUI-133
OBJECT_ID      = 2025-311F
CENTER_NAME    = EARTH
REF_FRAME      = TEME
TIME_SYSTEM    = UTC
MEAN_ELEMENT_THEORY = SGP/SGP4

EPOCH          = 2026-01-15T10:07:27.512544
MEAN_MOTION    = 13.90209467
ECCENTRICITY   = .00075869
INCLINATION    = 50.0122
RA_OF_ASC_NODE = 314.3128
ARG_OF_PERICENTER = 342.9599
MEAN_ANOMALY   = 17.1044

EPHEMERIS_TYPE = 0
CLASSIFICATION_TYPE = U
NORAD_CAT_ID   = 67241
ELEMENT_SET_NO = 999
REV_AT_EPOCH   = 285
BSTAR          = .86445611E-4
MEAN_MOTION_DOT = -.39E-6
MEAN_MOTION_DDOT = 0

